$$SOE
2460728.500000000, A.D. 2025-Feb-22 00:00:00.0000, -1.378762440546463E+08, 3.821219507091376E+08, 4.137499100656600E+07,
2460735.500000000, A.D. 2025-Mar-01 00:00:00.0000, -1.471306656152082E+08, 3.771468049432918E+08, 4.104158038207923E+07,
2460742.500000000, A.D. 2025-Mar-08 00:00:00.0000, -1.562789437698059E+08, 3.719000239215302E+08, 4.067857539060147E+07,
2460749.500000000, A.D. 2025-Mar-15 00:00:00.0000, -1.653132678479131E+08, 3.663824862232736E+08, 4.028592130923417E+07,
2460756.500000000, A.D. 2025-Mar-22 00:00:00.0000, -1.742257283334616E+08, 3.605952626331328E+08, 3.986358108243577E+07,
2460763.500000000, A.D. 2025-Mar-29 00:00:00.0000, -1.830083189863718E+08, 3.545396228539679E+08, 3.941153614838716E+07,
2460770.500000000, A.D. 2025-Apr-05 00:00:00.0000, -1.916529376751878E+08, 3.482170434430779E+08, 3.892978722558138E+07,
2460777.500000000, A.D. 2025-Apr-12 00:00:00.0000, -2.001513878837614E+08, 3.416292170761085E+08, 3.841835524493732E+07,
2460784.500000000, A.D. 2025-Apr-19 00:00:00.0000, -2.084953811162179E+08, 3.347780622524880E+08, 3.787728237219463E+07,
2460791.500000000, A.D. 2025-Apr-26 00:00:00.0000, -2.166765399688741E+08, 3.276657332309306E+08, 3.730663307860038E+07,
2460798.500000000, A.D. 2025-May-03 00:00:00.0000, -2.246864017985729E+08, 3.202946302037375E+08, 3.670649525048998E+07,
2460805.500000000, A.D. 2025-May-10 00:00:00.0000, -2.325164230040820E+08, 3.126674097055300E+08, 3.607698133514228E+07,
2460812.500000000, A.D. 2025-May-17 00:00:00.0000, -2.401579839309286E+08, 3.047869951990217E+08, 3.541822951522307E+07,
2460819.500000000, A.D. 2025-May-24 00:00:00.0000, -2.476023942745625E+08, 2.966565877630515E+08, 3.473040489013791E+07,
2460826.500000000, A.D. 2025-May-31 00:00:00.0000, -2.548408986146206E+08, 2.882796771689285E+08, 3.401370064974409E+07,
2460833.500000000, A.D. 2025-Jun-07 00:00:00.0000, -2.618646825343679E+08, 2.796600545203593E+08, 3.326833937366952E+07,
2460840.500000000, A.D. 2025-Jun-14 00:00:00.0000, -2.686648817457370E+08, 2.708018257579640E+08, 3.249457461631173E+07,
2460847.500000000, A.D. 2025-Jun-21 00:00:00.0000, -2.752325930558550E+08, 2.617094227198410E+08, 3.169269239548276E+07,
2460854.500000000, A.D. 2025-Jun-28 00:00:00.0000, -2.815588840973836E+08, 2.523876134726342E+08, 3.086301243797140E+07,
2460861.500000000, A.D. 2025-Jul-05 00:00:00.0000, -2.876348033975137E+08, 2.428415140140457E+08, 3.000588949316853E+07,
2460868.500000000, A.D. 2025-Jul-12 00:00:00.0000, -2.934513920347226E+08, 2.330766004849561E+08, 2.912171475343707E+07,
2460875.500000000, A.D. 2025-Jul-19 00:00:00.0000, -2.989996967469604E+08, 2.230987212505660E+08, 2.821091731107032E+07,
2460882.500000000, A.D. 2025-Jul-26 00:00:00.0000, -3.042707843327382E+08, 2.129141087184696E+08, 2.727396562130862E+07,
2460889.500000000, A.D. 2025-Aug-02 00:00:00.0000, -3.092557573294522E+08, 2.025293908313736E+08, 2.631136895970480E+07,
2460896.500000000, A.D. 2025-Aug-09 00:00:00.0000, -3.139457709921541E+08, 1.919516021275309E+08, 2.532367886212493E+07,
2460903.500000000, A.D. 2025-Aug-16 00:00:00.0000, -3.183320515380415E+08, 1.811881942045203E+08, 2.431149052582987E+07,
2460910.500000000, A.D. 2025-Aug-23 00:00:00.0000, -3.224059154005045E+08, 1.702470454923763E+08, 2.327544413580880E+07,
2460917.500000000, A.D. 2025-Aug-30 00:00:00.0000, -3.261587891932725E+08, 1.591364709296857E+08, 2.221622613314791E+07,
2460924.500000000, A.D. 2025-Sep-06 00:00:00.0000, -3.295822318255813E+08, 1.478652324124746E+08, 2.113457062477771E+07,
2460931.500000000, A.D. 2025-Sep-13 00:00:00.0000, -3.326679604558685E+08, 1.364425473953233E+08, 2.003126087142130E+07,
2460938.500000000, A.D. 2025-Sep-20 00:00:00.0000, -3.354078770132831E+08, 1.248780938566314E+08, 1.890713040455088E+07,
2460945.500000000, A.D. 2025-Sep-27 00:00:00.0000, -3.377940942117799E+08, 1.131820145824736E+08, 1.776306391372084E+07,
2460952.500000000, A.D. 2025-Oct-04 00:00:00.0000, -3.398189630492860E+08, 1.013649211402471E+08, 1.659999811631217E+07,
2460959.500000000, A.D. 2025-Oct-11 00:00:00.0000, -3.414751021308798E+08, 8.943789643041517E+07, 1.541892254887721E+07,
2460966.500000000, A.D. 2025-Oct-18 00:00:00.0000, -3.427554284755526E+08, 7.741249537118194E+07, 1.422088021259909E+07,
2460973.500000000, A.D. 2025-Oct-25 00:00:00.0000, -3.436531895856322E+08, 6.530074355181743E+07, 1.300696804094023E+07,
2460980.500000000, A.D. 2025-Nov-01 00:00:00.0000, -3.441619966328095E+08, 5.311513369072473E+07, 1.177833716642088E+07,
2460987.500000000, A.D. 2025-Nov-08 00:00:00.0000, -3.442758585951491E+08, 4.086861968333697E+07, 1.053619295987553E+07,
2460994.500000000, A.D. 2025-Nov-15 00:00:00.0000, -3.439892170458625E+08, 2.857460799603532E+07, 9.281794803090159E+06,
2461001.500000000, A.D. 2025-Nov-22 00:00:00.0000, -3.432969810223030E+08, 1.624694644619437E+07, 8.016455555367617E+06,
2461008.500000000, A.D. 2025-Nov-29 00:00:00.0000, -3.421945619385142E+08, 3.899911336173094E+06, 6.741540800511979E+06,
2461015.500000000, A.D. 2025-Dec-06 00:00:00.0000, -3.406779106029125E+08, -8.451807346318150E+06, 5.458468051979798E+06,
2461022.500000000, A.D. 2025-Dec-13 00:00:00.0000, -3.387435556656609E+08, -2.079312616581923E+07, 4.168705581751956E+06,
2461029.500000000, A.D. 2025-Dec-20 00:00:00.0000, -3.363886397307013E+08, -3.310859300292952E+07, 2.873770618767373E+06,
2461036.500000000, A.D. 2025-Dec-27 00:00:00.0000, -3.336109538995546E+08, -4.538241384208434E+07, 1.575227212329095E+06,
2461043.500000000, A.D. 2026-Jan-03 00:00:00.0000, -3.304089718761297E+08, -5.759848226682272E+07, 2.746838313776553E+05,
2461050.500000000, A.D. 2026-Jan-10 00:00:00.0000, -3.267818831803132E+08, -6.974041237889281E+07, -1.026209376060367E+06,
2461057.500000000, A.D. 2026-Jan-17 00:00:00.0000, -3.227296248803312E+08, -8.179157523057951E+07, -2.325763698663034E+06,
2461064.500000000, A.D. 2026-Jan-24 00:00:00.0000, -3.182529113926080E+08, -9.373513870414200E+07, -3.622255360654175E+06,
2461071.500000000, A.D. 2026-Jan-31 00:00:00.0000, -3.133532619421301E+08, -1.055541107597838E+08, -4.913929404715106E+06,
2461078.500000000, A.D. 2026-Feb-07 00:00:00.0000, -3.080330252348348E+08, -1.172313859780396E+08, -6.199003962996110E+06,
2461085.500000000, A.D. 2026-Feb-14 00:00:00.0000, -3.022954007046966E+08, -1.287497952322795E+08, -7.475674929475233E+06,
2461092.500000000, A.D. 2026-Feb-21 00:00:00.0000, -2.961444555722746E+08, -1.400921576848536E+08, -8.742121005590215E+06,
2461099.500000000, A.D. 2026-Feb-28 00:00:00.0000, -2.895851384384028E+08, -1.512413336739346E+08, -9.996508903494999E+06,
2461106.500000000, A.D. 2026-Mar-07 00:00:00.0000, -2.826232911334092E+08, -1.621802801143273E+08, -1.123699865042935E+07,
2461113.500000000, A.D. 2026-Mar-14 00:00:00.0000, -2.752656557428432E+08, -1.728921103734059E+08, -1.246174940743770E+07,
2461120.500000000, A.D. 2026-Mar-21 00:00:00.0000, -2.675198747635226E+08, -1.833601553058191E+08, -1.366892569166765E+07,
2461127.500000000, A.D. 2026-Mar-28 00:00:00.0000, -2.593944861768078E+08, -1.935680239555943E+08, -1.485670369077948E+07,
2461134.500000000, A.D. 2026-Apr-04 00:00:00.0000, -2.508989138678988E+08, -2.034996643940861E+08, -1.602327764531158E+07,
2461141.500000000, A.D. 2026-Apr-11 00:00:00.0000, -2.420434530007111E+08, -2.131394245322904E+08, -1.716686630265580E+07,
2461148.500000000, A.D. 2026-Apr-18 00:00:00.0000, -2.328392501396069E+08, -2.224721123739258E+08, -1.828571940428749E+07,
2461155.500000000, A.D. 2026-Apr-25 00:00:00.0000, -2.232982780912620E+08, -2.314830551393427E+08, -1.937812415304488E+07,
2461162.500000000, A.D. 2026-May-02 00:00:00.0000, -2.134333055222656E+08, -2.401581567281699E+08, -2.044241160732496E+07,
2461169.500000000, A.D. 2026-May-09 00:00:00.0000, -2.032578613813163E+08, -2.484839530298916E+08, -2.147696295948367E+07,
2461176.500000000, A.D. 2026-May-16 00:00:00.0000, -1.927861939683844E+08, -2.564476644028210E+08, -2.248021566203360E+07,
2461183.500000000, A.D. 2026-May-23 00:00:00.0000, -1.820332248841020E+08, -2.640372437846162E+08, -2.345066926394159E+07,
2461190.500000000, A.D. 2026-May-30 00:00:00.0000, -1.710145002839875E+08, -2.712414196378491E+08, -2.438689068378697E+07,
2461197.500000000, A.D. 2026-Jun-06 00:00:00.0000, -1.597461401591938E+08, -2.780497365772215E+08, -2.528751910628672E+07,
2461204.500000000, A.D. 2026-Jun-13 00:00:00.0000, -1.482447824392097E+08, -2.844525931118013E+08, -2.615127077638224E+07,
2461211.500000000, A.D. 2026-Jun-20 00:00:00.0000, -1.365275229277984E+08, -2.904412732677888E+08, -2.697694336601727E+07,
2461218.500000000, A.D. 2026-Jun-27 00:00:00.0000, -1.246118533163555E+08, -2.960079721838676E+08, -2.776341975166817E+07,
2461225.500000000, A.D. 2026-Jul-04 00:00:00.0000, -1.125155978446230E+08, -3.011458162715168E+08, -2.850967123813713E+07,
2461232.500000000, A.D. 2026-Jul-11 00:00:00.0000, -1.002568489373467E+08, -3.058488779590887E+08, -2.921476024147072E+07,
2461239.500000000, A.D. 2026-Jul-18 00:00:00.0000, -8.785390230965364E+07, -3.101121849540814E+08, -2.987784242349954E+07,
2461246.500000000, A.D. 2026-Jul-25 00:00:00.0000, -7.532519209854861E+07, -3.139317240539944E+08, -3.049816827331147E+07,
2461253.500000000, A.D. 2026-Aug-01 00:00:00.0000, -6.268922654187872E+07, -3.173044396525729E+08, -3.107508414324367E+07,
2461260.500000000, A.D. 2026-Aug-08 00:00:00.0000, -4.996452453330553E+07, -3.202282271339178E+08, -3.160803276642357E+07,
2461267.500000000, A.D. 2026-Aug-15 00:00:00.0000, -3.716955314246754E+07, -3.227019209171992E+08, -3.209655326751916E+07,
2461274.500000000, A.D. 2026-Aug-22 00:00:00.0000, -2.432266732003237E+07, -3.247252762020844E+08, -3.254028051522656E+07,
2461281.500000000, A.D. 2026-Aug-29 00:00:00.0000, -1.144205448978050E+07, -3.262989461137979E+08, -3.293894374503897E+07,
2461288.500000000, A.D. 2026-Sep-05 00:00:00.0000, 1.454317737835676E+06, -3.274244574878513E+08, -3.329236491529773E+07,
$$EOE